OBJECT_NAME,OBJECT_ID,EPOCH,MEAN_MOTION,ECCENTRICITY,INCLINATION,RA_OF_ASC_NODE,ARG_OF_PERICENTER,MEAN_ANOMALY,EPHEMERIS_TYPE,CLASSIFICATION_TYPE,NORAD_CAT_ID,ELEMENT_SET_NO,REV_AT_EPOCH,BSTAR,MEAN_MOTION_DOT,MEAN_MOTION_DDOT
STARLINK-30363,2023-131N,2026-06-13T04:44:39.947712,15.27578579,.00013599,43.0045,338.5668,258.0571,102.0128,0,U,57744,999,15469,.95741081E-4,.2373E-4,0
STARLINK-30362,2023-131P,2026-06-13T19:41:15.154656,15.27573900,.0001596,43.0006,349.9614,275.4577,84.6092,0,U,57745,999,15461,-.36695E-4,-.1272E-4,0
STARLINK-30350,2023-131Q,2026-06-13T18:59:24.673056,15.27569778,.0000866,42.9980,346.3377,253.3912,106.6844,0,U,57746,999,15465,-.31799E-4,-.1136E-4,0
STARLINK-30307,2023-131R,2026-06-13T19:15:21.066624,15.27584804,.0000461,43.0115,349.8320,199.0403,161.0431,0,U,57747,999,15461,.10871E-3,.2731E-4,0
STARLINK-30356,2023-131S,2026-06-13T05:46:35.317056,15.27579475,.0000677,43.0027,352.5026,260.7743,99.3032,0,U,57748,999,15453,.25236E-4,.433E-5,0
STARLINK-30366,2023-131T,2026-06-12T22:41:19.713984,15.25908190,.00015542,43.0038,357.9985,302.1794,57.8906,0,U,57749,999,15444,.9168478E-5,-.18E-6,0
STARLINK-30357,2023-131U,2026-06-13T20:03:54.967104,15.27550177,.000148,43.0011,356.8836,248.4746,111.5948,0,U,57750,999,15452,-.14868E-3,-.4347E-4,0
STARLINK-30370,2023-131V,2026-06-13T04:47:00.780576,15.31271032,.00036192,42.9981,336.8820,290.6577,69.3888,0,U,57751,999,15471,.88144398E-3,.27011E-3,0
STARLINK-30368,2023-131W,2026-06-13T05:17:11.054112,15.27575917,.0000812,43.0023,353.1698,248.6929,111.3836,0,U,57752,999,15452,.15429E-3,.3986E-4,0
STARLINK-30343,2023-131X,2026-06-13T19:58:20.561088,15.27569402,.0001331,43.0004,356.8559,272.3678,87.7021,0,U,57753,999,15453,.30549E-5,-.178E-5,0
WILDFIRE 4,2023-133A,2026-06-13T19:42:01.540224,13.86356756,.0010073,81.0022,9.4072,9.5479,350.5867,0,U,57756,999,14065,.81342E-4,.105E-5,0
BB4,2023-133B,2026-06-13T16:15:40.059936,14.36561728,.0006004,81.0042,3.6556,1.6214,358.4989,0,U,57757,999,14096,.14857E-3,.449E-5,0
WILDFIRE 3,2023-133C,2026-06-13T20:23:26.039616,13.86278807,.00088,80.9968,9.1893,9.6966,350.4359,0,U,57758,999,14063,.73005E-4,.95E-6,0
BB3,2023-133D,2026-06-13T14:52:39.379008,14.59363403,.0106013,80.9959,353.8484,315.1602,44.1063,0,U,57760,999,14154,.11635E-3,.61E-5,0
WILDFIRE 7,2023-133E,2026-06-13T19:37:40.200096,13.85102352,.0006211,80.9991,11.1808,48.6679,311.5011,0,U,57761,999,14052,.91097E-4,.114E-5,0
CHECKMATE 10,2023-133F,2026-06-13T20:57:43.805952,13.85472772,.0006752,80.9997,10.5903,25.0627,335.0856,0,U,57762,999,14057,-.36805E-4,-.31E-6,0
WILDFIRE 6,2023-133G,2026-06-13T20:31:39.279072,13.85358834,.0006385,80.9954,10.3352,33.2213,326.9343,0,U,57763,999,14055,.75564E-4,.97E-6,0
WILDFIRE 1,2023-133H,2026-06-13T20:33:55.029024,13.85730944,.0006751,80.9999,10.1782,17.5590,342.5799,0,U,57764,999,14059,.80132E-4,.103E-5,0
WILDFIRE 9,2023-133J,2026-06-13T19:26:22.292736,13.85389064,.0006519,81.0032,11.2020,29.4482,330.7041,0,U,57765,999,14055,-.78101E-5,.2E-7,0
WILDFIRE 10,2023-133K,2026-06-13T20:51:05.792256,13.85605443,.0006868,81.0028,10.6698,20.5980,339.5452,0,U,57766,999,14058,.18415E-4,.32E-6,0
WILDFIRE 2,2023-133L,2026-06-13T19:13:01.640352,13.85362112,.0006047,80.9958,10.6848,39.6026,320.5571,0,U,57767,999,14053,.8239E-4,.105E-5,0
WILDFIRE 8,2023-133M,2026-06-13T20:33:10.633248,13.85421536,.0006404,80.9952,10.1579,29.0956,331.0556,0,U,57768,999,14057,.33693E-4,.49E-6,0
WILDFIRE 5,2023-133N,2026-06-13T19:44:07.197792,13.85461427,.0006629,81.0031,11.0381,25.7899,334.3587,0,U,57769,999,14056,-.46793E-4,-.42E-6,0
STARLINK-30397,2023-134A,2026-06-13T20:51:12.693024,15.27560987,.0001458,42.9940,11.5407,266.3356,93.7329,0,U,57771,999,15421,.55141E-4,.1255E-4,0
STARLINK-30354,2023-134B,2026-06-13T07:21:42.959808,15.27591887,.00007081,43.0012,17.6046,257.7433,102.3339,0,U,57772,999,15409,.1249583E-3,.3179E-4,0
STARLINK-30383,2023-134C,2026-06-13T21:25:25.349664,15.27583749,.0000987,43.0042,14.2646,257.4596,102.6145,0,U,57773,999,15418,.11622E-4,.58E-6,0
STARLINK-30384,2023-134D,2026-06-12T07:51:13.785696,15.27581428,.00002491,42.9963,23.1617,103.0550,257.0330,0,U,57774,999,15394,.50209829E-4,.112E-4,0
STARLINK-30305,2023-134E,2026-06-13T20:56:45.027168,15.27570802,.0001337,43.0001,11.5653,272.0479,88.0219,0,U,57775,999,15421,-.23304E-4,-.903E-5,0
STARLINK-30360,2023-134F,2026-06-13T20:58:36.344064,15.27570332,.0001298,43.0095,11.5779,281.4062,78.6644,0,U,57776,999,15421,-.28062E-4,-.1034E-4,0
STARLINK-30355,2023-134G,2026-06-13T20:39:22.000320,15.27583052,.0001576,43.0036,14.8594,262.3063,97.7609,0,U,57777,999,15416,.32392E-4,.629E-5,0
STARLINK-30385,2023-134H,2026-06-13T19:50:11.099904,15.27570779,.0000755,43.0086,0.0711,257.0306,103.0462,0,U,57778,999,15418,.62326E-4,.1453E-4,0
STARLINK-30359,2023-134J,2026-06-13T20:10:32.515104,15.27576767,.0001093,43.0041,0.2137,267.1460,92.9266,0,U,57779,999,15434,.67834E-5,-.75E-6,0
STARLINK-30380,2023-134K,2026-06-13T20:19:43.332384,15.27591570,.0000983,43.0057,11.3635,240.0718,120.0036,0,U,57780,999,15421,.82088E-4,.1998E-4,0
STARLINK-30369,2023-134L,2026-06-13T20:14:04.283232,15.27681904,.0005186,43.0235,11.3442,291.1552,68.8746,0,U,57781,999,15421,.51279E-3,.13922E-3,0
STARLINK-30376,2023-134M,2026-06-13T07:26:07.268640,15.27585638,.00018502,43.0090,14.2213,258.2625,101.8019,0,U,57782,999,15413,.59843926E-4,.1385E-4,0
STARLINK-30389,2023-134N,2026-06-13T21:23:35.052288,15.27573830,.0000727,43.0056,14.2550,266.9121,93.1648,0,U,57783,999,15418,-.19752E-4,-.805E-5,0
STARLINK-30388,2023-134P,2026-06-13T20:04:55.451424,15.27581160,.0001204,42.9993,11.2927,238.8242,121.2492,0,U,57784,999,15421,.24004E-4,.399E-5,0
STARLINK-30381,2023-134Q,2026-06-13T20:30:49.854816,15.27574702,.0001423,43.0045,11.3335,263.4393,96.6296,0,U,57785,999,15421,.14007E-4,.123E-5,0
STARLINK-30382,2023-134R,2026-06-13T07:20:34.767744,15.27573281,.0001333,43.0078,14.1922,262.4936,97.5764,0,U,57786,999,15413,-.25777905E-4,-.971E-5,0
STARLINK-30378,2023-134S,2026-06-13T20:45:38.716416,15.27577047,.0000202,43.0012,11.5002,265.5396,94.5433,0,U,57787,999,15421,.8771E-5,-.2E-6,0
STARLINK-30387,2023-134T,2026-06-13T05:48:19.768608,15.27587063,.0001541,43.0031,3.4642,275.0594,85.0082,0,U,57788,999,15425,.65898E-4,.1552E-4,0
STARLINK-30372,2023-134U,2026-06-13T17:04:15.506976,15.27680342,.0001141,43.0015,256.0939,272.4712,87.6009,0,U,57789,999,15555,.15849E-3,.4115E-4,0
STARLINK-30367,2023-134W,2026-06-13T20:25:15.765024,15.27594097,.0001163,43.0064,11.3996,264.0880,95.9839,0,U,57791,999,15421,.81037E-4,.1969E-4,0
TIANQI-21,2023-135A,2026-06-13T19:55:01.175808,14.23116951,.0013697,49.9700,166.4441,246.4219,113.5255,0,U,57792,999,14415,.16875E-3,.225E-5,0
TIANQI-22,2023-135B,2026-06-13T19:30:36.345888,14.23241367,.0013275,49.9668,166.7201,250.6662,109.2815,0,U,57793,999,14414,.94663E-4,.57E-6,0
TIANQI-23,2023-135C,2026-06-13T18:37:09.105312,14.23036578,.0013968,49.9705,166.8871,250.2759,109.6647,0,U,57794,999,14414,.59952E-4,-.23E-6,0
TIANQI-24,2023-135D,2026-06-13T19:04:00.558624,14.23142845,.0014393,49.9715,167.0584,250.5830,109.3527,0,U,57795,999,14414,-.13011E-4,-.189E-5,0
YAOGAN-33 03,2023-136A,2026-06-13T21:38:08.716128,14.58723803,.0007323,98.1959,89.2650,187.8728,172.2358,0,U,57797,999,14745,.91143E-4,.379E-5,0
XRISM,2023-137A,2026-06-13T21:22:52.242816,15.12439115,.0007976,31.0031,20.9529,290.9953,68.9833,0,U,57800,999,15236,.26715E-3,.486E-4,0
STARLINK-30374,2023-138B,2026-06-12T23:18:51.439680,15.27580420,.00020164,43.0056,55.8111,279.7910,80.2714,0,U,57809,999,15331,.32836744E-4,.641E-5,0
STARLINK-30394,2023-138C,2026-06-13T09:04:09.898176,15.27595691,.00008949,43.0084,53.7037,129.4690,230.6241,0,U,57810,999,15327,.76695944E-3,.20913E-3,0
STARLINK-30379,2023-138D,2026-06-12T09:37:20.765856,15.27584163,.00012381,43.0047,59.2661,268.7849,91.2861,0,U,57811,999,15322,.33533427E-4,.661E-5,0
STARLINK-30395,2023-138E,2026-06-13T09:15:15.328512,15.27573633,.00010168,42.9984,53.7532,272.3342,87.7393,0,U,57812,999,15337,-.17759665E-4,-.75E-5,0
STARLINK-30403,2023-138F,2026-06-12T00:21:40.819392,15.27465048,.00021422,43.0018,61.5310,111.1243,248.9837,0,U,57813,999,15306,.82219887E-3,.22353E-3,0
STARLINK-30413,2023-138G,2026-06-13T10:07:03.940032,15.27575636,.00011634,43.0028,54.0265,282.3660,77.7061,0,U,57814,999,15337,.1773521E-5,-.213E-5,0
STARLINK-30398,2023-138H,2026-06-13T09:35:36.862944,15.27569287,.00004102,43.0054,53.8610,294.8560,65.2249,0,U,57815,999,15327,.329393E-6,-.253E-5,0
STARLINK-30386,2023-138J,2026-06-13T00:16:12.692064,15.27582285,.00007452,43.0026,56.1066,254.4264,105.6505,0,U,57816,999,15313,.33688656E-4,.665E-5,0
STARLINK-30391,2023-138K,2026-06-13T08:00:01.999872,15.27588759,.00013918,43.0038,54.3335,263.7586,48.4462,0,U,57817,999,587,-.83722985E-3,-.23235E-3,0
STARLINK-30401,2023-138L,2026-06-13T09:50:22.813728,15.27580312,.0004218,43.0219,53.9272,276.9384,83.0989,0,U,57818,999,15327,.25101372E-4,.427E-5,0
STARLINK-30390,2023-138M,2026-06-13T09:55:57.819360,15.27580213,.00003326,43.0008,53.9637,173.0849,187.0007,0,U,57819,999,15331,.22839076E-4,.367E-5,0
STARLINK-30409,2023-138N,2026-06-12T23:29:56.889024,15.27580582,.00019115,43.0024,55.8445,273.0390,87.0243,0,U,57820,999,15325,.4673409E-4,.1024E-4,0
STARLINK-30415,2023-138P,2026-06-13T19:37:33.472992,15.27569843,.0001346,43.0031,51.8348,281.4002,78.6699,0,U,57821,999,15343,-.10467E-3,-.314E-4,0
STARLINK-30407,2023-138R,2026-06-13T03:13:52.119264,15.27581428,.00031009,43.0088,309.7621,279.5636,80.4865,0,U,57823,999,15456,.32170598E-4,.622E-5,0
STARLINK-30408,2023-138S,2026-06-12T23:24:24.231744,15.27581813,.00009762,42.9938,55.8286,229.7843,130.2923,0,U,57824,999,15330,.50079577E-4,.1117E-4,0
STARLINK-30377,2023-138T,2026-06-12T23:22:33.650112,15.27573977,.00021705,43.0141,55.8316,275.7575,84.3030,0,U,57825,999,15320,.150087E-6,-.259E-5,0
STARLINK-30422,2023-138U,2026-06-13T09:20:48.045408,15.27579328,.00011361,43.0072,53.7787,271.4158,88.6564,0,U,57826,999,15336,.25572064E-4,.442E-5,0
